NORAD_CAT_ID,OBJECT_NAME,OBJECT_TYPE,EPOCH,MEAN_MOTION,ECCENTRICITY,INCLINATION,RA_OF_ASC_NODE,ARG_OF_PERICENTER,MEAN_ANOMALY,BSTAR,MEAN_MOTION_DOT,MEAN_MOTION_DDOT,TLE_LINE0,TLE_LINE1,TLE_LINE2,SEMIMAJOR_AXIS,PERIOD,APOGEE,PERIGEE,DECAYED
53750.0,STARLINK-4612,PAYLOAD,2023-11-14 10:20:47,15.08837336,0.0001396,53.2184,103.3722,92.4266,267.6886,-2.3204e-05,-6.57e-06,0.0,0 STARLINK-4612,1 53750U 22107BC  23318.43110060 -.00000657  00000-0 -23204-4 0  9999,2 53750  53.2184 103.3722 0001396  92.4266 267.6886 15.08837336 66055,6917.889,95.438,540.719,538.788,0.0
53750.0,STARLINK-4612,PAYLOAD,2023-11-14 13:31:33,15.0883701,0.0001389,53.2184,102.7773,93.7123,266.4028,-2.6153e-05,-7.04e-06,0.0,0 STARLINK-4612,1 53750U 22107BC  23318.56358095 -.00000704  00000-0 -26153-4 0  9994,2 53750  53.2184 102.7773 0001389  93.7123 266.4028 15.08837010 66865,6917.89,95.438,540.715,538.794,0.0
53750.0,STARLINK-4612,PAYLOAD,2023-11-14 16:42:19,15.0883841,0.0001382,53.2184,102.1826,93.6699,266.4452,-1.4226e-05,-5.14e-06,0.0,0 STARLINK-4612,1 53750U 22107BC  23318.69605974 -.00000514  00000-0 -14226-4 0  9996,2 53750  53.2184 102.1826 0001382  93.6699 266.4452 15.08838410 66886,6917.885,95.438,540.706,538.794,0.0
53750.0,STARLINK-4612,PAYLOAD,2023-11-15 13:22:20,15.08835856,0.0001428,53.2193,98.319,99.2834,260.8319,1.0743e-05,-1.17e-06,0.0,0 STARLINK-4612,1 53750U 22107BC  23319.55718196 -.00000117  00000-0  10743-4 0  9991,2 53750  53.2193  98.3190 0001428  99.2834 260.8319 15.08835856 67017,6917.893,95.438,540.746,538.77,0.0
53750.0,STARLINK-4612,PAYLOAD,2023-11-15 16:33:06,15.08837028,0.0001413,53.2193,97.7244,99.1014,261.0138,2.0461e-05,3.8e-07,0.0,0 STARLINK-4612,1 53750U 22107BC  23319.68966121  .00000038  00000-0  20461-4 0  9997,2 53750  53.2193  97.7244 0001413  99.1014 261.0138 15.08837028 66242,6917.889,95.438,540.732,538.777,0.0
53750.0,STARLINK-4612,PAYLOAD,2023-11-16 17:59:17,15.08835021,0.0001369,53.2193,92.9664,96.9348,263.18,3.7527e-05,3.09e-06,0.0,0 STARLINK-4612,1 53750U 22107BC  23320.74950469  .00000309  00000-0  37527-4 0  9996,2 53750  53.2193  92.9664 0001369  96.9348 263.1800 15.08835021 66408,6917.896,95.438,540.708,538.814,0.0
53750.0,STARLINK-4612,PAYLOAD,2023-11-17 13:03:54,15.08837543,0.0001298,53.2191,89.3974,90.1875,269.9266,2.8475e-05,1.65e-06,0.0,0 STARLINK-4612,1 53750U 22107BC  23321.54438531  .00000165  00000-0  28475-4 0  9998,2 53750  53.2191  89.3974 0001298  90.1875 269.9266 15.08837543 67314,6917.888,95.438,540.651,538.855,0.0
53750.0,STARLINK-4612,PAYLOAD,2023-11-18 12:54:42,15.08836153,0.0001413,53.2196,84.9372,94.6017,265.5136,2.0989e-06,-2.55e-06,0.0,0 STARLINK-4612,1 53750U 22107BC  23322.53798760 -.00000255  00000-0  20989-5 0  9995,2 53750  53.2196  84.9372 0001413  94.6017 265.5136 15.08836153 66670,6917.892,95.438,540.735,538.78,0.0
53750.0,STARLINK-4612,PAYLOAD,2023-11-18 14:30:05,15.08837296,0.0001329,53.2194,84.6383,90.5272,269.5872,1.7171e-05,-1.5e-07,0.0,0 STARLINK-4612,1 53750U 22107BC  23322.60422742 -.00000015  00000-0  17171-4 0  9999,2 53750  53.2194  84.6383 0001329  90.5272 269.5872 15.08837296 67470,6917.889,95.438,540.673,538.834,0.0
53750.0,STARLINK-4612,PAYLOAD,2023-11-19 14:20:51,15.08841064,0.0001237,53.2188,80.177,89.2419,270.8715,5.8632e-05,6.45e-06,0.0,0 STARLINK-4612,1 53750U 22107BC  23323.59782320  .00000645  00000-0  58632-4 0  9994,2 53750  53.2188  80.1770 0001237  89.2419 270.8715 15.08841064 67626,6917.877,95.437,540.598,538.886,0.0
53750.0,STARLINK-4612,PAYLOAD,2023-11-20 14:11:38,15.08842046,0.0001391,53.2185,75.7174,90.8181,269.2971,4.447e-05,4.2e-06,0.0,0 STARLINK-4612,1 53750U 22107BC  23324.59142230  .00000420  00000-0  44470-4 0  9991,2 53750  53.2185  75.7174 0001391  90.8181 269.2971 15.08842046 67779,6917.874,95.437,540.701,538.777,0.0
53750.0,STARLINK-4612,PAYLOAD,2023-11-20 17:22:24,15.08845145,0.0001387,53.2187,75.123,89.5633,270.5518,8.3414e-05,1.04e-05,0.0,0 STARLINK-4612,1 53750U 22107BC  23324.72389872  .00001040  00000-0  83414-4 0  9991,2 53750  53.2187  75.1230 0001387  89.5633 270.5518 15.08845145 67001,6917.865,95.437,540.689,538.77,0.0
53750.0,STARLINK-4612,PAYLOAD,2023-11-21 10:51:40,15.08836416,0.0001368,53.2188,71.8521,88.4703,271.6446,-4.025e-05,-9.28e-06,0.0,0 STARLINK-4612,1 53750U 22107BC  23325.45254795 -.00000928  00000-0 -40250-4 0  9994,2 53750  53.2188  71.8521 0001368  88.4703 271.6446 15.08836416 67118,6917.891,95.438,540.703,538.81,0.0
53750.0,STARLINK-4612,PAYLOAD,2023-11-21 12:27:03,15.08839268,0.0001667,53.2208,71.5565,89.019,271.0993,-2.3395e-05,-6.6e-06,0.0,0 STARLINK-4612,1 53750U 22107BC  23325.51878647 -.00000660  00000-0 -23395-4 0  9993,2 53750  53.2208  71.5565 0001667  89.0190 271.0993 15.08839268 67912,6917.883,95.438,540.901,538.594,0.0
53750.0,STARLINK-4612,PAYLOAD,2023-11-21 17:13:12,15.08844426,0.0001393,53.2184,70.6619,92.0891,268.0261,3.8837e-05,3.3e-06,0.0,0 STARLINK-4612,1 53750U 22107BC  23325.71750001  .00000330  00000-0  38837-4 0  9997,2 53750  53.2184  70.6619 0001393  92.0891 268.0261 15.08844426 67942,6917.867,95.437,540.696,538.768,0.0
53750.0,STARLINK-4612,PAYLOAD,2023-11-22 12:17:49,15.08843209,0.0001562,53.2193,67.0952,82.2682,277.8487,4.3778e-05,4.09e-06,0.0,0 STARLINK-4612,1 53750U 22107BC  23326.51237933  .00000409  00000-0  43778-4 0  9997,2 53750  53.2193  67.0952 0001562  82.2682 277.8487 15.08843209 68069,6917.871,95.437,540.816,538.655,0.0
53750.0,STARLINK-4612,PAYLOAD,2023-11-23 12:08:37,15.08839107,0.0001547,53.2197,62.634,109.8413,250.2746,-4.8549e-05,-1.061e-05,0.0,0 STARLINK-4612,1 53750U 22107BC  23327.50598523 -.00001061  00000-0 -48549-4 0  9990,2 53750  53.2197  62.6340 0001547 109.8413 250.2746 15.08839107 67420,6917.883,95.438,540.818,538.678,0.0
53750.0,STARLINK-4612,PAYLOAD,2023-11-23 13:44:00,15.08840442,0.0001518,53.2196,62.3366,107.8094,252.3064,-3.617e-05,-8.64e-06,0.0,0 STARLINK-4612,1 53750U 22107BC  23327.57222409 -.00000864  00000-0 -36170-4 0  9991,2 53750  53.2196  62.3366 0001518 107.8094 252.3064 15.08840442 68224,6917.879,95.438,540.794,538.694,0.0
53750.0,STARLINK-4612,PAYLOAD,2023-11-23 15:19:23,15.08843448,0.0001429,53.2195,62.0392,97.8615,262.254,-8.3372e-06,-4.21e-06,0.0,0 STARLINK-4612,1 53750U 22107BC  23327.63846179 -.00000421  00000-0 -83372-5 0  9990,2 53750  53.2195  62.0392 0001429  97.8615 262.2540 15.08843448 68236,6917.87,95.437,540.723,538.746,0.0
53750.0,STARLINK-4612,PAYLOAD,2023-11-24 11:59:25,15.08830538,0.000187,53.2206,58.1752,99.4429,260.6775,-0.00015835,-2.807e-05,0.0,0 STARLINK-4612,1 53750U 22107BC  23328.49960090 -.00002807  00000-0 -15835-3 0  9991,2 53750  53.2206  58.1752 0001870  99.4429 260.6775 15.08830538 67570,6917.909,95.438,541.068,538.481,0.0
53750.0,STARLINK-4612,PAYLOAD,2023-11-24 13:34:48,15.0883255,0.0001681,53.2198,57.8762,91.2128,268.9057,-0.00013845,-2.49e-05,0.0,0 STARLINK-4612,1 53750U 22107BC  23328.56583960 -.00002490  00000-0 -13845-3 0  9993,2 53750  53.2198  57.8762 0001681  91.2128 268.9057 15.08832550 68372,6917.903,95.438,540.931,538.605,0.0
53750.0,STARLINK-4612,PAYLOAD,2023-11-24 18:20:57,15.08834226,0.0001691,53.2198,56.9791,93.1362,266.9823,-0.00011849,-2.173e-05,0.0,0 STARLINK-4612,1 53750U 22107BC  23328.76455823 -.00002173  00000-0 -11849-3 0  9991,2 53750  53.2198  56.9791 0001691  93.1362 266.9823 15.08834226 68401,6917.898,95.438,540.933,538.593,0.0
53750.0,STARLINK-4612,PAYLOAD,2023-11-25 13:25:33,15.0885704,0.0001633,53.2193,53.4182,86.1787,273.9391,0.00018288,2.625e-05,0.0,0 STARLINK-4612,1 53750U 22107BC  23329.55941882  .00002625  00000-0  18288-3 0  9998,2 53750  53.2193  53.4182 0001633  86.1787 273.9391 15.08857040 68521,6917.828,95.436,540.823,538.564,0.0
53750.0,STARLINK-4612,PAYLOAD,2023-11-25 15:00:56,15.08862642,0.0001502,53.2193,53.1156,93.5243,266.5921,0.00022707,3.33e-05,0.0,0 STARLINK-4612,1 53750U 22107BC  23329.62565216  .00003330  00000-0  22707-3 0  9994,2 53750  53.2193  53.1156 0001502  93.5243 266.5921 15.08862642 68535,6917.811,95.436,540.715,538.637,0.0
53750.0,STARLINK-4612,PAYLOAD,2023-11-26 11:40:57,15.08851191,0.0001772,53.2192,49.2495,99.5809,260.5384,0.00018399,2.642e-05,0.0,0 STARLINK-4612,1 53750U 22107BC  23330.48677862  .00002642  00000-0  18399-3 0  9998,2 53750  53.2192  49.2495 0001772  99.5809 260.5384 15.08851191 67879,6917.846,95.437,540.937,538.485,0.0
53750.0,STARLINK-4612,PAYLOAD,2023-11-27 11:31:47,15.08829083,0.000155,53.2183,44.7915,103.5502,256.5663,-0.00032374,-5.435e-05,0.0,0 STARLINK-4612,1 53750U 22107BC  23331.48041119 -.00005435  00000-0 -32374-3 0  9993,2 53750  53.2183  44.7915 0001550 103.5502 256.5663 15.08829083 68024,6917.914,95.438,540.851,538.706,0.0
53750.0,STARLINK-4612,PAYLOAD,2023-11-28 11:22:31,15.08867121,0.000178,53.2188,40.3317,93.4701,266.6495,4.437e-05,4.19e-06,0.0,0 STARLINK-4612,1 53750U 22107BC  23332.47397766  .00000419  00000-0  44370-4 0  9990,2 53750  53.2188  40.3317 0001780  93.4701 266.6495 15.08867121 68176,6917.797,95.436,540.894,538.431,0.0
53750.0,STARLINK-4612,PAYLOAD,2023-11-29 11:13:20,15.08832332,0.0001583,53.218,35.8708,100.8489,259.2681,0.00025874,3.831e-05,0.0,0 STARLINK-4612,1 53750U 22107BC  23333.46759706  .00003831  00000-0  25874-3 0  9994,2 53750  53.2180  35.8708 0001583 100.8489 259.2681 15.08832332 68326,6917.904,95.438,540.864,538.674,0.0
53750.0,STARLINK-4612,PAYLOAD,2023-12-01 07:44:08,15.08836787,0.0002177,53.2206,27.5531,120.9428,239.1778,1.9577e-06,-2.57e-06,0.0,0 STARLINK-4612,1 53750U 22107BC  23335.32232469 -.00000257  00000-0  19577-5 0  9998,2 53750  53.2206  27.5531 0002177 120.9428 239.1778 15.08836787 68606,6917.89,95.438,541.261,538.249,0.0
53750.0,STARLINK-4612,PAYLOAD,2023-12-01 09:19:31,15.08836919,0.0001948,53.2199,27.2541,112.9577,247.162,8.0582e-06,-1.6e-06,0.0,0 STARLINK-4612,1 53750U 22107BC  23335.38856470 -.00000160  00000-0  80582-5 0  9995,2 53750  53.2199  27.2541 0001948 112.9577 247.1620 15.08836919 69407,6917.89,95.438,541.102,538.407,0.0
